{
  "type": "FeatureCollection",
  "features": [
    {
      "type": "Feature",
      "properties": {
        "norad_id": 31937,
        "name": "FENGYUN 1C DEB",
        "group": "fengyun-1c-debris",
        "lat": -18.614594730436348,
        "lon": -109.25389841767513,
        "alt_km": 668.8921368096098,
        "timestamp": "2025-12-10T14:53:37.376188+00:00",
        "meta_object_name": "FENGYUN 1C DEB",
        "meta_object_id": "1999-025CMN",
        "meta_epoch": "2025-12-06T23:52:27.149088",
        "meta_mean_motion": 14.78022374,
        "meta_eccentricity": 0.0162921,
        "meta_inclination": 99.2561,
        "meta_ra_of_asc_node": 69.7316,
        "meta_arg_of_pericenter": 315.3928,
        "meta_mean_anomaly": 43.4262,
        "meta_ephemeris_type": 0,
        "meta_classification_type": "U",
        "meta_norad_cat_id": 31937,
        "meta_element_set_no": 999,
        "meta_rev_at_epoch": 65984,
        "meta_bstar": 0.0011794166,
        "meta_mean_motion_dot": 0.00010567,
        "meta_mean_motion_ddot": 0,
        "tle_line1": "1 31937U 99025CMN 25340.99475867  .00010567  00000+0  11794-2 0  9999",
        "tle_line2": "2 31937  99.2561  69.7316 0162921 315.3928  43.4262 14.78022374659842"
      },
      "geometry": {
        "type": "Point",
        "coordinates": [
          -109.25389841767513,
          -18.614594730436348
        ]
      }
    },
    {
      "type": "Feature",
      "properties": {
        "norad_id": 31938,
        "name": "FENGYUN 1C DEB",
        "group": "fengyun-1c-debris",
        "lat": 17.97549204517092,
        "lon": 12.833879906084057,
        "alt_km": 518.3249077254168,
        "timestamp": "2025-12-10T14:53:37.376200+00:00",
        "meta_object_name": "FENGYUN 1C DEB",
        "meta_object_id": "1999-025CMP",
        "meta_epoch": "2025-12-09T13:07:20.802720",
        "meta_mean_motion": 14.95555137,
        "meta_eccentricity": 0.015288,
        "meta_inclination": 98.9293,
        "meta_ra_of_asc_node": 14.5351,
        "meta_arg_of_pericenter": 76.4008,
        "meta_mean_anomaly": 285.4184,
        "meta_ephemeris_type": 0,
        "meta_classification_type": "U",
        "meta_norad_cat_id": 31938,
        "meta_element_set_no": 999,
        "meta_rev_at_epoch": 99088,
        "meta_bstar": 0.00054773,
        "meta_mean_motion_dot": 7.608e-05,
        "meta_mean_motion_ddot": 0,
        "tle_line1": "1 31938U 99025CMP 25343.54676855  .00007608  00000+0  54773-3 0  9991",
        "tle_line2": "2 31938  98.9293  14.5351 0152880  76.4008 285.4184 14.95555137990885"
      },
      "geometry": {
        "type": "Point",
        "coordinates": [
          12.833879906084057,
          17.97549204517092
        ]
      }
    },
    {
      "type": "Feature",
      "properties": {
        "norad_id": 31944,
        "name": "FENGYUN 1C DEB",
        "group": "fengyun-1c-debris",
        "lat": 13.134481678592074,
        "lon": -45.763018143241645,
        "alt_km": 954.6465666835957,
        "timestamp": "2025-12-10T14:53:37.376210+00:00",
        "meta_object_name": "FENGYUN 1C DEB",
        "meta_object_id": "1999-025CMV",
        "meta_epoch": "2025-12-05T05:25:34.154400",
        "meta_mean_motion": 14.11765981,
        "meta_eccentricity": 0.01519652,
        "meta_inclination": 99.203,
        "meta_ra_of_asc_node": 126.5353,
        "meta_arg_of_pericenter": 25.3933,
        "meta_mean_anomaly": 98.7212,
        "meta_ephemeris_type": 0,
        "meta_classification_type": "U",
        "meta_norad_cat_id": 31944,
        "meta_element_set_no": 999,
        "meta_rev_at_epoch": 62804,
        "meta_bstar": 0.00085144569,
        "meta_mean_motion_dot": 1.684e-05,
        "meta_mean_motion_ddot": 0,
        "tle_line1": "1 31944U 99025CMV 25339.22608975  .00001684  00000+0  85145-3 0  9991",
        "tle_line2": "2 31944  99.2030 126.5353 0151965  25.3933  98.7212 14.11765981628045"
      },
      "geometry": {
        "type": "Point",
        "coordinates": [
          -45.763018143241645,
          13.134481678592074
        ]
      }
    },
    {
      "type": "Feature",
      "properties": {
        "norad_id": 31945,
        "name": "FENGYUN 1C DEB",
        "group": "fengyun-1c-debris",
        "lat": 79.72688234309051,
        "lon": 0.3679921222551917,
        "alt_km": 853.3976123260136,
        "timestamp": "2025-12-10T14:53:37.376219+00:00",
        "meta_object_name": "FENGYUN 1C DEB",
        "meta_object_id": "1999-025CMW",
        "meta_epoch": "2025-12-05T04:21:02.992896",
        "meta_mean_motion": 14.20730618,
        "meta_eccentricity": 0.00605162,
        "meta_inclination": 98.9642,
        "meta_ra_of_asc_node": 55.4147,
        "meta_arg_of_pericenter": 309.2017,
        "meta_mean_anomaly": 50.3794,
        "meta_ephemeris_type": 0,
        "meta_classification_type": "U",
        "meta_norad_cat_id": 31945,
        "meta_element_set_no": 999,
        "meta_rev_at_epoch": 95088,
        "meta_bstar": 0.0029640312,
        "meta_mean_motion_dot": 6.47e-05,
        "meta_mean_motion_ddot": 0,
        "tle_line1": "1 31945U 99025CMW 25339.18128464  .00006470  00000+0  29640-2 0  9992",
        "tle_line2": "2 31945  98.9642  55.4147 0060516 309.2017  50.3794 14.20730618950888"
      },
      "geometry": {
        "type": "Point",
        "coordinates": [
          0.3679921222551917,
          79.72688234309051
        ]
      }
    },
    {
      "type": "Feature",
      "properties": {
        "norad_id": 31946,
        "name": "FENGYUN 1C DEB",
        "group": "fengyun-1c-debris",
        "lat": -8.457055067458503,
        "lon": 46.18190665344752,
        "alt_km": 815.371202255853,
        "timestamp": "2025-12-10T14:53:37.376228+00:00",
        "meta_object_name": "FENGYUN 1C DEB",
        "meta_object_id": "1999-025CMX",
        "meta_epoch": "2025-12-09T10:06:45.402048",
        "meta_mean_motion": 14.16409764,
        "meta_eccentricity": 0.00827485,
        "meta_inclination": 98.8978,
        "meta_ra_of_asc_node": 43.6488,
        "meta_arg_of_pericenter": 59.5267,
        "meta_mean_anomaly": 301.4047,
        "meta_ephemeris_type": 0,
        "meta_classification_type": "U",
        "meta_norad_cat_id": 31946,
        "meta_element_set_no": 999,
        "meta_rev_at_epoch": 63961,
        "meta_bstar": 0.0018182572,
        "meta_mean_motion_dot": 3.694e-05,
        "meta_mean_motion_ddot": 0,
        "tle_line1": "1 31946U 99025CMX 25343.42135882  .00003694  00000+0  18183-2 0  9992",
        "tle_line2": "2 31946  98.8978  43.6488 0082748  59.5267 301.4047 14.16409764639616"
      },
      "geometry": {
        "type": "Point",
        "coordinates": [
          46.18190665344752,
          -8.457055067458503
        ]
      }
    },
    {
      "type": "Feature",
      "properties": {
        "norad_id": 31948,
        "name": "FENGYUN 1C DEB",
        "group": "fengyun-1c-debris",
        "lat": -72.89633842687203,
        "lon": 77.42842245724994,
        "alt_km": 809.1544702004458,
        "timestamp": "2025-12-10T14:53:37.376237+00:00",
        "meta_object_name": "FENGYUN 1C DEB",
        "meta_object_id": "1999-025CMZ",
        "meta_epoch": "2025-12-08T09:44:13.179840",
        "meta_mean_motion": 14.28248279,
        "meta_eccentricity": 0.00237817,
        "meta_inclination": 99.3918,
        "meta_ra_of_asc_node": 42.5089,
        "meta_arg_of_pericenter": 35.7447,
        "meta_mean_anomaly": 26.9919,
        "meta_ephemeris_type": 0,
        "meta_classification_type": "U",
        "meta_norad_cat_id": 31948,
        "meta_element_set_no": 999,
        "meta_rev_at_epoch": 94966,
        "meta_bstar": 0.0021945448,
        "meta_mean_motion_dot": 5.441e-05,
        "meta_mean_motion_ddot": 0,
        "tle_line1": "1 31948U 99025CMZ 25342.40570810  .00005441  00000+0  21945-2 0  9997",
        "tle_line2": "2 31948  99.3918  42.5089 0023781  35.7447  26.9919 14.28248279949662"
      },
      "geometry": {
        "type": "Point",
        "coordinates": [
          77.42842245724994,
          -72.89633842687203
        ]
      }
    },
    {
      "type": "Feature",
      "properties": {
        "norad_id": 31949,
        "name": "FENGYUN 1C DEB",
        "group": "fengyun-1c-debris",
        "lat": -11.959062448437233,
        "lon": 148.37977843228094,
        "alt_km": 759.4244737289955,
        "timestamp": "2025-12-10T14:53:37.376246+00:00",
        "meta_object_name": "FENGYUN 1C DEB",
        "meta_object_id": "1999-025CNA",
        "meta_epoch": "2025-11-23T05:03:27.897984",
        "meta_mean_motion": 14.1687356,
        "meta_eccentricity": 0.01252295,
        "meta_inclination": 98.5419,
        "meta_ra_of_asc_node": 313.4803,
        "meta_arg_of_pericenter": 269.0533,
        "meta_mean_anomaly": 89.6292,
        "meta_ephemeris_type": 0,
        "meta_classification_type": "U",
        "meta_norad_cat_id": 31949,
        "meta_element_set_no": 999,
        "meta_rev_at_epoch": 95228,
        "meta_bstar": 0.00041514195,
        "meta_mean_motion_dot": 8.56e-06,
        "meta_mean_motion_ddot": 0,
        "tle_line1": "1 31949U 99025CNA 25327.21073956  .00000856  00000+0  41514-3 0  9999",
        "tle_line2": "2 31949  98.5419 313.4803 0125229 269.0533  89.6292 14.16873560952288"
      },
      "geometry": {
        "type": "Point",
        "coordinates": [
          148.37977843228094,
          -11.959062448437233
        ]
      }
    }
  ]
}